[{"OBJECT_NAME":"STARLINK-37128","OBJECT_ID":"2026-063F","EPOCH":"2026-04-04T20:00:01.999008","MEAN_MOTION":15.90867988,"ECCENTRICITY":0.0001601,"INCLINATION":97.2829,"RA_OF_ASC_NODE":235.7931,"ARG_OF_PERICENTER":84.9564,"MEAN_ANOMALY":142.2905,"EPHEMERIS_TYPE":0,"CLASSIFICATION_TYPE":"U","NORAD_CAT_ID":68385,"ELEMENT_SET_NO":999,"REV_AT_EPOCH":261,"BSTAR":-0.0065863,"MEAN_MOTION_DOT":-0.02026417,"MEAN_MOTION_DDOT":0.0011045},{"OBJECT_NAME":"STARLINK-37198","OBJECT_ID":"2026-063G","EPOCH":"2026-04-04T20:00:01.999008","MEAN_MOTION":15.91005402,"ECCENTRICITY":0.0001436,"INCLINATION":97.2825,"RA_OF_ASC_NODE":235.7935,"ARG_OF_PERICENTER":81.5819,"MEAN_ANOMALY":148.6771,"EPHEMERIS_TYPE":0,"CLASSIFICATION_TYPE":"U","NORAD_CAT_ID":68386,"ELEMENT_SET_NO":999,"REV_AT_EPOCH":266,"BSTAR":-0.0065195,"MEAN_MOTION_DOT":-0.02019945,"MEAN_MOTION_DDOT":0.0010995},{"OBJECT_NAME":"STARLINK-37223","OBJECT_ID":"2026-063H","EPOCH":"2026-04-04T20:00:01.999008","MEAN_MOTION":15.91127033,"ECCENTRICITY":0.0001572,"INCLINATION":97.2822,"RA_OF_ASC_NODE":235.7951,"ARG_OF_PERICENTER":83.1909,"MEAN_ANOMALY":150.4234,"EPHEMERIS_TYPE":0,"CLASSIFICATION_TYPE":"U","NORAD_CAT_ID":68387,"ELEMENT_SET_NO":999,"REV_AT_EPOCH":266,"BSTAR":-0.0065172,"MEAN_MOTION_DOT":-0.02031644,"MEAN_MOTION_DDOT":0.0011129},{"OBJECT_NAME":"STARLINK-37203","OBJECT_ID":"2026-063J","EPOCH":"2026-04-04T20:00:01.999008","MEAN_MOTION":15.91236683,"ECCENTRICITY":0.0001434,"INCLINATION":97.2819,"RA_OF_ASC_NODE":235.7966,"ARG_OF_PERICENTER":89.3887,"MEAN_ANOMALY":147.674,"EPHEMERIS_TYPE":0,"CLASSIFICATION_TYPE":"U","NORAD_CAT_ID":68388,"ELEMENT_SET_NO":999,"REV_AT_EPOCH":266,"BSTAR":-0.0064856,"MEAN_MOTION_DOT":-0.02033041,"MEAN_MOTION_DDOT":0.0011156},{"OBJECT_NAME":"STARLINK-37197","OBJECT_ID":"2026-063K","EPOCH":"2026-04-04T20:00:01.999008","MEAN_MOTION":15.91483863,"ECCENTRICITY":0.000165,"INCLINATION":97.2822,"RA_OF_ASC_NODE":235.7997,"ARG_OF_PERICENTER":72.9379,"MEAN_ANOMALY":170.4127,"EPHEMERIS_TYPE":0,"CLASSIFICATION_TYPE":"U","NORAD_CAT_ID":68389,"ELEMENT_SET_NO":999,"REV_AT_EPOCH":266,"BSTAR":-0.0063963,"MEAN_MOTION_DOT":-0.02030526,"MEAN_MOTION_DDOT":0.0011158},{"OBJECT_NAME":"STARLINK-37193","OBJECT_ID":"2026-063L","EPOCH":"2026-04-04T15:43:02.386272","MEAN_MOTION":16.0606021,"ECCENTRICITY":0.0001087,"INCLINATION":97.282,"RA_OF_ASC_NODE":235.6341,"ARG_OF_PERICENTER":340.3695,"MEAN_ANOMALY":19.7545,"EPHEMERIS_TYPE":0,"CLASSIFICATION_TYPE":"U","NORAD_CAT_ID":68390,"ELEMENT_SET_NO":999,"REV_AT_EPOCH":172,"BSTAR":0.0012473,"MEAN_MOTION_DOT":0.0089655,"MEAN_MOTION_DDOT":0.00042927},{"OBJECT_NAME":"STARLINK-37216","OBJECT_ID":"2026-063M","EPOCH":"2026-04-04T20:00:01.999008","MEAN_MOTION":15.91633254,"ECCENTRICITY":0.0001423,"INCLINATION":97.2819,"RA_OF_ASC_NODE":235.8009,"ARG_OF_PERICENTER":85.776,"MEAN_ANOMALY":160.6582,"EPHEMERIS_TYPE":0,"CLASSIFICATION_TYPE":"U","NORAD_CAT_ID":68391,"ELEMENT_SET_NO":999,"REV_AT_EPOCH":266,"BSTAR":-0.0064254,"MEAN_MOTION_DOT":-0.02055053,"MEAN_MOTION_DDOT":0.0011431},{"OBJECT_NAME":"STARLINK-37215","OBJECT_ID":"2026-063N","EPOCH":"2026-04-04T20:00:01.999008","MEAN_MOTION":15.9174838,"ECCENTRICITY":0.0001415,"INCLINATION":97.2817,"RA_OF_ASC_NODE":235.8023,"ARG_OF_PERICENTER":83.8876,"MEAN_ANOMALY":166.0358,"EPHEMERIS_TYPE":0,"CLASSIFICATION_TYPE":"U","NORAD_CAT_ID":68392,"ELEMENT_SET_NO":999,"REV_AT_EPOCH":266,"BSTAR":-0.0064534,"MEAN_MOTION_DOT":-0.02075948,"MEAN_MOTION_DDOT":0.0011665},{"OBJECT_NAME":"STARLINK-37184","OBJECT_ID":"2026-063P","EPOCH":"2026-04-04T20:00:01.999008","MEAN_MOTION":15.91848584,"ECCENTRICITY":0.0001456,"INCLINATION":97.2818,"RA_OF_ASC_NODE":235.8039,"ARG_OF_PERICENTER":85.0115,"MEAN_ANOMALY":168.4448,"EPHEMERIS_TYPE":0,"CLASSIFICATION_TYPE":"U","NORAD_CAT_ID":68393,"ELEMENT_SET_NO":999,"REV_AT_EPOCH":266,"BSTAR":-0.0064173,"MEAN_MOTION_DOT":-0.02074962,"MEAN_MOTION_DDOT":0.0011667},{"OBJECT_NAME":"STARLINK-37157","OBJECT_ID":"2026-063Q","EPOCH":"2026-04-04T20:00:01.999008","MEAN_MOTION":15.91999601,"ECCENTRICITY":0.0001477,"INCLINATION":97.2812,"RA_OF_ASC_NODE":235.8047,"ARG_OF_PERICENTER":78.4706,"MEAN_ANOMALY":178.0079,"EPHEMERIS_TYPE":0,"CLASSIFICATION_TYPE":"U","NORAD_CAT_ID":68394,"ELEMENT_SET_NO":999,"REV_AT_EPOCH":266,"BSTAR":-0.0064776,"MEAN_MOTION_DOT":-0.02110349,"MEAN_MOTION_DDOT":0.0012066},{"OBJECT_NAME":"STARLINK-37172","OBJECT_ID":"2026-063R","EPOCH":"2026-04-04T20:00:01.999008","MEAN_MOTION":15.92225254,"ECCENTRICITY":0.0001404,"INCLINATION":97.2807,"RA_OF_ASC_NODE":235.8072,"ARG_OF_PERICENTER":81.0761,"MEAN_ANOMALY":181.9979,"EPHEMERIS_TYPE":0,"CLASSIFICATION_TYPE":"U","NORAD_CAT_ID":68395,"ELEMENT_SET_NO":999,"REV_AT_EPOCH":266,"BSTAR":-0.0063828,"MEAN_MOTION_DOT":-0.02103771,"MEAN_MOTION_DDOT":0.0012023},{"OBJECT_NAME":"STARLINK-37190","OBJECT_ID":"2026-063S","EPOCH":"2026-04-04T20:00:01.999008","MEAN_MOTION":15.92112464,"ECCENTRICITY":0.0001447,"INCLINATION":97.2807,"RA_OF_ASC_NODE":235.8058,"ARG_OF_PERICENTER":83.3436,"MEAN_ANOMALY":176.2394,"EPHEMERIS_TYPE":0,"CLASSIFICATION_TYPE":"U","NORAD_CAT_ID":68396,"ELEMENT_SET_NO":999,"REV_AT_EPOCH":266,"BSTAR":-0.006369,"MEAN_MOTION_DOT":-0.02087278,"MEAN_MOTION_DDOT":0.0011831},{"OBJECT_NAME":"STARLINK-37194","OBJECT_ID":"2026-063T","EPOCH":"2026-04-04T20:00:01.999008","MEAN_MOTION":15.9234579,"ECCENTRICITY":0.0001405,"INCLINATION":97.2807,"RA_OF_ASC_NODE":235.8091,"ARG_OF_PERICENTER":75.3049,"MEAN_ANOMALY":191.0703,"EPHEMERIS_TYPE":0,"CLASSIFICATION_TYPE":"U","NORAD_CAT_ID":68397,"ELEMENT_SET_NO":999,"REV_AT_EPOCH":266,"BSTAR":-0.0063897,"MEAN_MOTION_DOT":-0.02118982,"MEAN_MOTION_DDOT":0.0012204},{"OBJECT_NAME":"STARLINK-37220","OBJECT_ID":"2026-063U","EPOCH":"2026-04-04T20:00:01.999008","MEAN_MOTION":15.92583661,"ECCENTRICITY":0.0001492,"INCLINATION":97.2806,"RA_OF_ASC_NODE":235.8123,"ARG_OF_PERICENTER":75.8891,"MEAN_ANOMALY":197.0176,"EPHEMERIS_TYPE":0,"CLASSIFICATION_TYPE":"U","NORAD_CAT_ID":68398,"ELEMENT_SET_NO":999,"REV_AT_EPOCH":266,"BSTAR":-0.0063734,"MEAN_MOTION_DOT":-0.02139482,"MEAN_MOTION_DDOT":0.001246},{"OBJECT_NAME":"STARLINK-37187","OBJECT_ID":"2026-063V","EPOCH":"2026-04-04T20:00:01.999008","MEAN_MOTION":15.92451585,"ECCENTRICITY":0.0002816,"INCLINATION":97.2805,"RA_OF_ASC_NODE":235.8106,"ARG_OF_PERICENTER":64.1122,"MEAN_ANOMALY":205.7336,"EPHEMERIS_TYPE":0,"CLASSIFICATION_TYPE":"U","NORAD_CAT_ID":68399,"ELEMENT_SET_NO":999,"REV_AT_EPOCH":266,"BSTAR":-0.0071013,"MEAN_MOTION_DOT":-0.02365952,"MEAN_MOTION_DDOT":0.0015087},{"OBJECT_NAME":"STARLINK-36235","OBJECT_ID":"2026-063W","EPOCH":"2026-04-04T20:00:01.999008","MEAN_MOTION":15.92684556,"ECCENTRICITY":0.0001322,"INCLINATION":97.2801,"RA_OF_ASC_NODE":235.8136,"ARG_OF_PERICENTER":91.8547,"MEAN_ANOMALY":184.611,"EPHEMERIS_TYPE":0,"CLASSIFICATION_TYPE":"U","NORAD_CAT_ID":68400,"ELEMENT_SET_NO":999,"REV_AT_EPOCH":266,"BSTAR":-0.0063556,"MEAN_MOTION_DOT":-0.02144565,"MEAN_MOTION_DDOT":0.001253}]
