STARLINK-37128          
1 68385U 26063F   26094.83335647 -.02026417  11045-2 -65863-2 0  9994
2 68385  97.2829 235.7931 0001601  84.9564 142.2905 15.90867988  2616
STARLINK-37198          
1 68386U 26063G   26094.83335647 -.02019945  10995-2 -65195-2 0  9994
2 68386  97.2825 235.7935 0001436  81.5819 148.6771 15.91005402  2661
STARLINK-37223          
1 68387U 26063H   26094.83335647 -.02031644  11129-2 -65172-2 0  9990
2 68387  97.2822 235.7951 0001572  83.1909 150.4234 15.91127033  2666
STARLINK-37203          
1 68388U 26063J   26094.83335647 -.02033041  11156-2 -64856-2 0  9992
2 68388  97.2819 235.7966 0001434  89.3887 147.6740 15.91236683  2661
STARLINK-37197          
1 68389U 26063K   26094.83335647 -.02030526  11158-2 -63963-2 0  9998
2 68389  97.2822 235.7997 0001650  72.9379 170.4127 15.91483863  2661
STARLINK-37193          
1 68390U 26063L   26094.65488873  .00896550  42927-3  12473-2 0  9992
2 68390  97.2820 235.6341 0001087 340.3695  19.7545 16.06060210  1729
STARLINK-37216          
1 68391U 26063M   26094.83335647 -.02055053  11431-2 -64254-2 0  9991
2 68391  97.2819 235.8009 0001423  85.7760 160.6582 15.91633254  2666
STARLINK-37215          
1 68392U 26063N   26094.83335647 -.02075948  11665-2 -64534-2 0  9997
2 68392  97.2817 235.8023 0001415  83.8876 166.0358 15.91748380  2667
STARLINK-37184          
1 68393U 26063P   26094.83335647 -.02074962  11667-2 -64173-2 0  9994
2 68393  97.2818 235.8039 0001456  85.0115 168.4448 15.91848584  2664
STARLINK-37157          
1 68394U 26063Q   26094.83335647 -.02110349  12066-2 -64776-2 0  9998
2 68394  97.2812 235.8047 0001477  78.4706 178.0079 15.91999601  2667
STARLINK-37172          
1 68395U 26063R   26094.83335647 -.02103771  12023-2 -63828-2 0  9990
2 68395  97.2807 235.8072 0001404  81.0761 181.9979 15.92225254  2660
STARLINK-37190          
1 68396U 26063S   26094.83335647 -.02087278  11831-2 -63690-2 0  9997
2 68396  97.2807 235.8058 0001447  83.3436 176.2394 15.92112464  2662
STARLINK-37194          
1 68397U 26063T   26094.83335647 -.02118982  12204-2 -63897-2 0  9999
2 68397  97.2807 235.8091 0001405  75.3049 191.0703 15.92345790  2664
STARLINK-37220          
1 68398U 26063U   26094.83335647 -.02139482  12460-2 -63734-2 0  9992
2 68398  97.2806 235.8123 0001492  75.8891 197.0176 15.92583661  2667
STARLINK-37187          
1 68399U 26063V   26094.83335647 -.02365952  15087-2 -71013-2 0  9993
2 68399  97.2805 235.8106 0002816  64.1122 205.7336 15.92451585  2661
STARLINK-36235          
1 68400U 26063W   26094.83335647 -.02144565  12530-2 -63556-2 0  9994
2 68400  97.2801 235.8136 0001322  91.8547 184.6110 15.92684556  2663
